{
  "type": "FeatureCollection",
  "features": [
    {
      "type": "Feature",
      "properties": {
        "norad_id": 58701,
        "name": "TIANMU-1 16",
        "group": "weather",
        "lat": -7.568965460804281,
        "lon": -178.04560723710355,
        "alt_km": 497.38556502109077,
        "timestamp": "2025-12-26T03:50:11.730586+00:00",
        "meta_object_name": "TIANMU-1 16",
        "meta_object_id": "2024-004B",
        "meta_epoch": "2025-12-25T19:59:38.730624",
        "meta_mean_motion": 15.24607383,
        "meta_eccentricity": 0.0004441,
        "meta_inclination": 97.457,
        "meta_ra_of_asc_node": 180.6319,
        "meta_arg_of_pericenter": 236.0923,
        "meta_mean_anomaly": 123.9892,
        "meta_ephemeris_type": 0,
        "meta_classification_type": "U",
        "meta_norad_cat_id": 58701,
        "meta_element_set_no": 999,
        "meta_rev_at_epoch": 10934,
        "meta_bstar": 0.00029761,
        "meta_mean_motion_dot": 7.27e-05,
        "meta_mean_motion_ddot": 0,
        "tle_line1": "1 58701U 24004B   25359.83308716  .00007270  00000+0  29761-3 0  9994",
        "tle_line2": "2 58701  97.4570 180.6319 0004441 236.0923 123.9892 15.24607383109341"
      },
      "geometry": {
        "type": "Point",
        "coordinates": [
          -178.04560723710355,
          -7.568965460804281
        ]
      }
    },
    {
      "type": "Feature",
      "properties": {
        "norad_id": 58702,
        "name": "TIANMU-1 17",
        "group": "weather",
        "lat": 76.74272805140012,
        "lon": 147.58154694583274,
        "alt_km": 486.87585446927187,
        "timestamp": "2025-12-26T03:50:11.730596+00:00",
        "meta_object_name": "TIANMU-1 17",
        "meta_object_id": "2024-004C",
        "meta_epoch": "2025-12-25T19:36:55.484640",
        "meta_mean_motion": 15.24649939,
        "meta_eccentricity": 0.00036,
        "meta_inclination": 97.4603,
        "meta_ra_of_asc_node": 181.033,
        "meta_arg_of_pericenter": 236.969,
        "meta_mean_anomaly": 123.1201,
        "meta_ephemeris_type": 0,
        "meta_classification_type": "U",
        "meta_norad_cat_id": 58702,
        "meta_element_set_no": 999,
        "meta_rev_at_epoch": 10933,
        "meta_bstar": 0.00029297,
        "meta_mean_motion_dot": 7.164e-05,
        "meta_mean_motion_ddot": 0,
        "tle_line1": "1 58702U 24004C   25359.81730885  .00007164  00000+0  29297-3 0  9995",
        "tle_line2": "2 58702  97.4603 181.0330 0003600 236.9690 123.1201 15.24649939109331"
      },
      "geometry": {
        "type": "Point",
        "coordinates": [
          147.58154694583274,
          76.74272805140012
        ]
      }
    },
    {
      "type": "Feature",
      "properties": {
        "norad_id": 58703,
        "name": "TIANMU-1 18",
        "group": "weather",
        "lat": 9.980916855916863,
        "lon": 2.893938227311847,
        "alt_km": 492.61783206483324,
        "timestamp": "2025-12-26T03:50:11.730607+00:00",
        "meta_object_name": "TIANMU-1 18",
        "meta_object_id": "2024-004D",
        "meta_epoch": "2025-12-25T20:47:35.700288",
        "meta_mean_motion": 15.24633406,
        "meta_eccentricity": 0.0003003,
        "meta_inclination": 97.4621,
        "meta_ra_of_asc_node": 181.2799,
        "meta_arg_of_pericenter": 233.2139,
        "meta_mean_anomaly": 126.8823,
        "meta_ephemeris_type": 0,
        "meta_classification_type": "U",
        "meta_norad_cat_id": 58703,
        "meta_element_set_no": 999,
        "meta_rev_at_epoch": 10934,
        "meta_bstar": 0.00030863,
        "meta_mean_motion_dot": 7.547e-05,
        "meta_mean_motion_ddot": 0,
        "tle_line1": "1 58703U 24004D   25359.86638542  .00007547  00000+0  30863-3 0  9994",
        "tle_line2": "2 58703  97.4621 181.2799 0003003 233.2139 126.8823 15.24633406109341"
      },
      "geometry": {
        "type": "Point",
        "coordinates": [
          2.893938227311847,
          9.980916855916863
        ]
      }
    },
    {
      "type": "Feature",
      "properties": {
        "norad_id": 58990,
        "name": "INSAT-3DS",
        "group": "weather",
        "lat": 0.029189868339399974,
        "lon": -125.45051269984087,
        "alt_km": 35782.181557630785,
        "timestamp": "2025-12-26T03:50:11.730618+00:00",
        "meta_object_name": "INSAT-3DS",
        "meta_object_id": "2024-033A",
        "meta_epoch": "2025-12-25T19:20:09.265056",
        "meta_mean_motion": 1.00271096,
        "meta_eccentricity": 0.0001294,
        "meta_inclination": 0.0616,
        "meta_ra_of_asc_node": 99.2335,
        "meta_arg_of_pericenter": 176.765,
        "meta_mean_anomaly": 190.7092,
        "meta_ephemeris_type": 0,
        "meta_classification_type": "U",
        "meta_norad_cat_id": 58990,
        "meta_element_set_no": 999,
        "meta_rev_at_epoch": 4533,
        "meta_bstar": 0,
        "meta_mean_motion_dot": -1.35e-06,
        "meta_mean_motion_ddot": 0,
        "tle_line1": "1 58990U 24033A   25359.80566279 -.00000135  00000+0  00000+0 0  9998",
        "tle_line2": "2 58990   0.0616  99.2335 0001294 176.7650 190.7092  1.00271096 45334"
      },
      "geometry": {
        "type": "Point",
        "coordinates": [
          -125.45051269984087,
          0.029189868339399974
        ]
      }
    },
    {
      "type": "Feature",
      "properties": {
        "norad_id": 59051,
        "name": "METEOR-M2 4",
        "group": "weather",
        "lat": 78.21148306182506,
        "lon": -176.10014993962665,
        "alt_km": 813.4085558579636,
        "timestamp": "2025-12-26T03:50:11.730629+00:00",
        "meta_object_name": "METEOR-M2 4",
        "meta_object_id": "2024-039A",
        "meta_epoch": "2025-12-25T20:37:28.774848",
        "meta_mean_motion": 14.22403301,
        "meta_eccentricity": 0.0006363,
        "meta_inclination": 98.6785,
        "meta_ra_of_asc_node": 316.5637,
        "meta_arg_of_pericenter": 318.8869,
        "meta_mean_anomaly": 41.1829,
        "meta_ephemeris_type": 0,
        "meta_classification_type": "U",
        "meta_norad_cat_id": 59051,
        "meta_element_set_no": 999,
        "meta_rev_at_epoch": 9462,
        "meta_bstar": 4.2881e-05,
        "meta_mean_motion_dot": 5.2e-07,
        "meta_mean_motion_ddot": 0,
        "tle_line1": "1 59051U 24039A   25359.85936082  .00000052  00000+0  42881-4 0  9996",
        "tle_line2": "2 59051  98.6785 316.5637 0006363 318.8869  41.1829 14.22403301 94623"
      },
      "geometry": {
        "type": "Point",
        "coordinates": [
          -176.10014993962665,
          78.21148306182506
        ]
      }
    },
    {
      "type": "Feature",
      "properties": {
        "norad_id": 60133,
        "name": "GOES 19",
        "group": "weather",
        "lat": -0.004143714654462282,
        "lon": 77.27566742286827,
        "alt_km": 35788.357929575744,
        "timestamp": "2025-12-26T03:50:11.730640+00:00",
        "meta_object_name": "GOES 19",
        "meta_object_id": "2024-119A",
        "meta_epoch": "2025-12-25T04:31:42.625056",
        "meta_mean_motion": 1.0027105,
        "meta_eccentricity": 0.00010365,
        "meta_inclination": 0.0152,
        "meta_ra_of_asc_node": 183.0311,
        "meta_arg_of_pericenter": 137.5029,
        "meta_mean_anomaly": 126.1624,
        "meta_ephemeris_type": 0,
        "meta_classification_type": "U",
        "meta_norad_cat_id": 60133,
        "meta_element_set_no": 999,
        "meta_rev_at_epoch": 521,
        "meta_bstar": 0,
        "meta_mean_motion_dot": -2.27e-06,
        "meta_mean_motion_ddot": 0,
        "tle_line1": "1 60133U 24119A   25359.18868779 -.00000227  00000+0  00000+0 0  9998",
        "tle_line2": "2 60133   0.0152 183.0311 0001036 137.5029 126.1624  1.00271050  5213"
      },
      "geometry": {
        "type": "Point",
        "coordinates": [
          77.27566742286827,
          -0.004143714654462282
        ]
      }
    },
    {
      "type": "Feature",
      "properties": {
        "norad_id": 65815,
        "name": "FENGYUN 3H",
        "group": "weather",
        "lat": -36.031273943316066,
        "lon": 113.09511102854508,
        "alt_km": 832.1146785891387,
        "timestamp": "2025-12-26T03:50:11.730653+00:00",
        "meta_object_name": "FENGYUN 3H",
        "meta_object_id": "2025-219A",
        "meta_epoch": "2025-12-25T20:03:20.693088",
        "meta_mean_motion": 14.19908106,
        "meta_eccentricity": 8.57e-05,
        "meta_inclination": 98.6602,
        "meta_ra_of_asc_node": 299.1427,
        "meta_arg_of_pericenter": 109.4741,
        "meta_mean_anomaly": 250.6528,
        "meta_ephemeris_type": 0,
        "meta_classification_type": "U",
        "meta_norad_cat_id": 65815,
        "meta_element_set_no": 999,
        "meta_rev_at_epoch": 1278,
        "meta_bstar": 6.468e-05,
        "meta_mean_motion_dot": 9.4e-07,
        "meta_mean_motion_ddot": 0,
        "tle_line1": "1 65815U 25219A   25359.83565617  .00000094  00000+0  64680-4 0  9999",
        "tle_line2": "2 65815  98.6602 299.1427 0000857 109.4741 250.6528 14.19908106 12783"
      },
      "geometry": {
        "type": "Point",
        "coordinates": [
          113.09511102854508,
          -36.031273943316066
        ]
      }
    }
  ]
}